IRIDIUM 119             
1 42959U 17061E   24318.58285697  .00000951  00000+0  33251-3 0  9993
2 42959  86.3944 267.8353 0002595  86.3426 273.8066 14.34212204371599
IRIDIUM 107             
1 42960U 17061F   24318.60187638  .00000371  00000+0  12526-3 0  9992
2 42960  86.3944 267.8453 0002587  78.5146 281.6340 14.34218234371608
IRIDIUM 132             
1 42961U 17061G   24318.39891336  .00000361  00000+0  12178-3 0  9998
2 42961  86.3944 267.9138 0002384  80.5070 279.6395 14.34221693371570
IRIDIUM 136             
1 42962U 17061H   24318.57016603  .00000919  00000+0  32096-3 0  9995
2 42962  86.3941 267.8463 0002685  85.1618 274.9885 14.34212452371611
IRIDIUM 139             
1 42963U 17061J   24318.57651725  .00001047  00000+0  36683-3 0  9995
2 42963  86.3946 267.8960 0002531  82.5903 277.5580 14.34215635371625
IRIDIUM 125             
1 42964U 17061K   24318.56380975  .00000881  00000+0  30740-3 0  9994
2 42964  86.3946 267.9507 0002786  85.0532 275.0982 14.34219495371630
IRIDIUM 135             
1 43070U 17083A   24318.60772435  .00001132  00000+0  39697-3 0  9998
2 43070  86.4019 204.6313 0001804  80.8241 279.3159 14.34216453360939
